{
  "47791": {
    "noradId": "47791",
    "tle": [
      "1 47791C 21018E   26051.76229167  .00005958  00000+0  20081-3 0   513",
      "2 47791  53.1600 321.5713 0001305  84.6794 314.4162 15.30183404    15"
    ]
  },
  "47792": {
    "noradId": "47792",
    "tle": [
      "1 47792C 21018F   26051.76020833  .00001410  00000+0  94483-4 0   510",
      "2 47792  53.0534 307.6187 0001375  88.9416 141.0725 15.06394094    17"
    ]
  },
  "47793": {
    "noradId": "47793",
    "tle": [
      "1 47793C 21018G   26051.74840278 -.00006808  00000+0 -45612-3 0   519",
      "2 47793  53.0530 307.6719 0001475  88.0983 357.8682 15.06406188    13"
    ]
  },
  "47796": {
    "noradId": "47796",
    "tle": [
      "1 47796C 21018K   26051.75604167  .00001489  00000+0  99772-4 0   513",
      "2 47796  53.0525 307.6378 0001459  87.8752 359.5207 15.06384665    11"
    ]
  },
  "47797": {
    "noradId": "47797",
    "tle": [
      "1 47797C 21018L   26051.76854167  .00793410  00000+0  50261-1 0   511",
      "2 47797  53.0615 332.5796 0001743  90.1465 229.4471 15.07671921    10"
    ]
  },
  "47798": {
    "noradId": "47798",
    "tle": [
      "1 47798C 21018M   26051.76229167 -.00000281  00000+0 -18833-4 0   519",
      "2 47798  53.0525 307.6100 0001509  94.1973 327.1376 15.06394645    15"
    ]
  },
  "47799": {
    "noradId": "47799",
    "tle": [
      "1 47799C 21018N   26051.75743056 -.00013691  00000+0 -91718-3 0   518",
      "2 47799  53.0523 307.6320 0001367  89.0968 325.8235 15.06416982    15"
    ]
  },
  "47800": {
    "noradId": "47800",
    "tle": [
      "1 47800C 21018P   26051.77062500  .00004733  00000+0  31720-3 0   513",
      "2 47800  53.0532 307.5718 0001472  85.4202 281.1004 15.06384891    17"
    ]
  },
  "47802": {
    "noradId": "47802",
    "tle": [
      "1 47802C 21018R   26051.75326389  .00671720  00000+0  44592-1 0   516",
      "2 47802  53.0545 332.6506 0001515  84.7639 110.1859 15.06070578    14"
    ]
  },
  "47804": {
    "noradId": "47804",
    "tle": [
      "1 47804C 21018T   26051.76715278  .00694900  00000+0  43615-1 0   518",
      "2 47804  53.0635 307.5805 0001463  93.4078 118.0636 15.08109194    14"
    ]
  },
  "47805": {
    "noradId": "47805",
    "tle": [
      "1 47805C 21018U   26051.77270833 -.00007174  00000+0 -48064-3 0   511",
      "2 47805  53.0525 307.8050 0001433  86.1532 331.5029 15.06409423    13"
    ]
  },
  "47806": {
    "noradId": "47806",
    "tle": [
      "1 47806C 21018V   26051.75395833  .00009573  00000+0  33112-3 0   519",
      "2 47806  53.1557 321.0649 0001690  89.8691   1.4869 15.29340683    15"
    ]
  },
  "47807": {
    "noradId": "47807",
    "tle": [
      "1 47807C 21018W   26051.76645833  .00000628  00000+0  21709-4 0   511",
      "2 47807  53.1548 295.2831 0001335  87.3259 163.4772 15.29351440    15"
    ]
  },
  "47808": {
    "noradId": "47808",
    "tle": [
      "1 47808C 21018X   26051.76993056 -.00018574  00000+0 -64215-3 0   514",
      "2 47808  53.1546 321.1962 0001690 108.0158 213.1261 15.29384360    14"
    ]
  },
  "47810": {
    "noradId": "47810",
    "tle": [
      "1 47810C 21018Z   26051.76715278 -.00004949  00000+0 -16679-3 0   517",
      "2 47810  53.1582 334.2157 0001194  92.8430  68.8042 15.30198917    15"
    ]
  },
  "47814": {
    "noradId": "47814",
    "tle": [
      "1 47814C 21018AD  26051.75395833  .00005865  00000+0  19769-3 0   510",
      "2 47814  53.1601 321.5164 0001437  81.2824 341.6371 15.30181497    19"
    ]
  },
  "47815": {
    "noradId": "47815",
    "tle": [
      "1 47815C 21018AE  26051.76645833  .00026322  00000+0  88802-3 0   515",
      "2 47815  53.1592 321.3001 0001817 107.0457  65.6160 15.30132423    12"
    ]
  },
  "47816": {
    "noradId": "47816",
    "tle": [
      "1 47816C 21018AF  26051.75951389 -.00009039  00000+0 -60577-3 0   518",
      "2 47816  53.0523 327.6229 0001431  86.9261   9.3216 15.06398540    11"
    ]
  },
  "47817": {
    "noradId": "47817",
    "tle": [
      "1 47817C 21018AG  26051.77340278  .00002046  00000+0  68958-4 0   511",
      "2 47817  53.1592 321.7029 0001406  93.9754 325.5550 15.30190156    13"
    ]
  },
  "47818": {
    "noradId": "47818",
    "tle": [
      "1 47818C 21018AH  26051.76715278  .00956070  00000+0  36583-1 0   518",
      "2 47818  53.0531 332.3431 0001801  91.8890 283.6091 15.25083315    14"
    ]
  },
  "47819": {
    "noradId": "47819",
    "tle": [
      "1 47819C 21018AJ  26051.76993056 -.00007089  00000+0 -23891-3 0   510",
      "2 47819  53.1592 321.6601 0001198  80.1100 331.9269 15.30201939    11"
    ]
  },
  "47821": {
    "noradId": "47821",
    "tle": [
      "1 47821C 21018AL  26051.76090278 -.00030955  00000+0 -10439-2 0   518",
      "2 47821  53.1582 321.3933 0001282  91.4688 311.8518 15.30203934    19"
    ]
  },
  "47822": {
    "noradId": "47822",
    "tle": [
      "1 47822C 21018AM  26051.76923611 -.00039694  00000+0 -13376-2 0   517",
      "2 47822  53.1577 333.8855 0001332  91.7382 337.1406 15.30236156    14"
    ]
  },
  "47823": {
    "noradId": "47823",
    "tle": [
      "1 47823C 21018AN  26051.75743056 -.00004994  00000+0 -33459-3 0   510",
      "2 47823  53.0522 327.6227 0001321  95.7023 314.3914 15.06402904    12"
    ]
  },
  "47824": {
    "noradId": "47824",
    "tle": [
      "1 47824C 21018AP  26051.76993056 -.00013880  00000+0 -93018-3 0   510",
      "2 47824  53.0526 327.5760 0001467  91.7660  81.0061 15.06404697    14"
    ]
  },
  "47825": {
    "noradId": "47825",
    "tle": [
      "1 47825C 21018AQ  26051.73937500 -.00003509  00000+0 -11826-3 0   514",
      "2 47825  53.1601 321.5802 0001538  91.8689 314.5436 15.30196408    17"
    ]
  },
  "47826": {
    "noradId": "47826",
    "tle": [
      "1 47826C 21018AR  26051.75673611  .00009055  00000+0  30525-3 0   514",
      "2 47826  53.1593 323.6482 0001510  77.6362 340.2175 15.30176266    11"
    ]
  },
  "47827": {
    "noradId": "47827",
    "tle": [
      "1 47827C 21018AS  26051.75187500 -.00003377  00000+0 -22627-3 0   519",
      "2 47827  53.0532 317.8978 0001408  83.3265   6.2884 15.06406394    18"
    ]
  },
  "47828": {
    "noradId": "47828",
    "tle": [
      "1 47828C 21018AT  26051.77409722 -.00031150  00000+0 -10498-2 0   517",
      "2 47828  53.1603 333.8597 0001274  89.5081 348.7224 15.30225249    16"
    ]
  },
  "47830": {
    "noradId": "47830",
    "tle": [
      "1 47830C 21018AV  26051.74840278  .00006662  00000+0  22457-3 0   519",
      "2 47830  53.1576 334.3312 0001319  94.6415 288.7628 15.30179124    18"
    ]
  },
  "47831": {
    "noradId": "47831",
    "tle": [
      "1 47831C 21018AW  26051.76576389  .00003103  00000+0  20792-3 0   518",
      "2 47831  53.0527 312.5944 0001466  97.4664 335.1990 15.06389405    10"
    ]
  },
  "47832": {
    "noradId": "47832",
    "tle": [
      "1 47832C 21018AX  26051.76229167 -.00000700  00000+0 -23594-4 0   514",
      "2 47832  53.1606 324.1214 0001409  86.9275 326.3075 15.30191544    15"
    ]
  },
  "47833": {
    "noradId": "47833",
    "tle": [
      "1 47833C 21018AY  26051.76645833  .00006111  00000+0  40970-3 0   513",
      "2 47833  53.0528 327.5912 0001368  83.5028  90.4843 15.06371950    19"
    ]
  },
  "47834": {
    "noradId": "47834",
    "tle": [
      "1 47834C 21018AZ  26051.75326389 -.00018892  00000+0 -63640-3 0   515",
      "2 47834  53.1592 323.7042 0001395  84.6095 331.4524 15.30226335    17"
    ]
  },
  "47836": {
    "noradId": "47836",
    "tle": [
      "1 47836C 21018BB  26051.75812500  .00009083  00000+0  30620-3 0   514",
      "2 47836  53.1591 323.6496 0001406  82.0973 326.0009 15.30173631    18"
    ]
  },
  "47837": {
    "noradId": "47837",
    "tle": [
      "1 47837C 21018BC  26051.76784722 -.00007957  00000+0 -53304-3 0   514",
      "2 47837  53.0532 307.5848 0001353  89.8885 241.5513 15.06412173    14"
    ]
  },
  "47838": {
    "noradId": "47838",
    "tle": [
      "1 47838C 21018BD  26051.76993056  .00008390  00000+0  28277-3 0   518",
      "2 47838  53.1596 324.0303 0001278  80.7776 345.5771 15.30181851    15"
    ]
  },
  "47839": {
    "noradId": "47839",
    "tle": [
      "1 47839C 21018BE  26051.74909722  .00002979  00000+0  10305-3 0   514",
      "2 47839  53.1557 295.5676 0001360  84.7426 358.0648 15.29349648    16"
    ]
  },
  "47840": {
    "noradId": "47840",
    "tle": [
      "1 47840C 21018BF  26051.76993056 -.00015649  00000+0 -10484-2 0   518",
      "2 47840  53.0526 307.5754 0001429  86.2799 336.4764 15.06418556    19"
    ]
  },
  "47841": {
    "noradId": "47841",
    "tle": [
      "1 47841C 21018BG  26051.76923611 -.00023784  00000+0 -15934-2 0   513",
      "2 47841  53.0525 307.5786 0001402  89.1029 349.8819 15.06425669    15"
    ]
  },
  "47843": {
    "noradId": "47843",
    "tle": [
      "1 47843C 21018BJ  26051.74840278  .00508870  00000+0  33901-1 0   515",
      "2 47843  53.0540 332.6721 0001538  76.5530 112.0145 15.06102363    14"
    ]
  },
  "47844": {
    "noradId": "47844",
    "tle": [
      "1 47844C 21018BK  26051.75395833 -.00004410  00000+0 -14481-3 0   516",
      "2 47844  53.1597 324.6654 0001284  85.4428 340.6182 15.31033134    14"
    ]
  },
  "47845": {
    "noradId": "47845",
    "tle": [
      "1 47845C 21018BL  26051.75743056 -.00006238  00000+0 -41808-3 0   514",
      "2 47845  53.0530 327.6318 0001400  93.3534  51.5962 15.06392655    19"
    ]
  },
  "47861": {
    "noradId": "47861",
    "tle": [
      "1 47861C 21021B   26051.75256944 -.00028329  00000+0 -97964-3 0   510",
      "2 47861  53.1600 336.5155 0001434  79.9173  87.0148 15.29387336    15"
    ]
  },
  "47862": {
    "noradId": "47862",
    "tle": [
      "1 47862C 21021C   26051.76437500 -.00017555  00000+0 -59162-3 0   518",
      "2 47862  53.1574 333.8833 0001359  89.3182 347.6353 15.30211008    17"
    ]
  }
}